{
    "links": {
        "self": "http://www.neowsapp.com/rest/v1/neo/3767320?api_key=iIulBulltgU6a56xZRHN4H3l9WmuAYTsLGpBGhQ2"
    },
    "id": "3767320",
    "neo_reference_id": "3767320",
    "name": "(2017 BF92)",
    "designation": "2017 BF92",
    "nasa_jpl_url": "http://ssd.jpl.nasa.gov/sbdb.cgi?sstr=3767320",
    "absolute_magnitude_h": 26.6,
    "estimated_diameter": {
        "kilometers": {
            "estimated_diameter_min": 0.0127219879,
            "estimated_diameter_max": 0.0284472297
        },
        "meters": {
            "estimated_diameter_min": 12.7219878539,
            "estimated_diameter_max": 28.4472296503
        },
        "miles": {
            "estimated_diameter_min": 0.0079050743,
            "estimated_diameter_max": 0.0176762835
        },
        "feet": {
            "estimated_diameter_min": 41.7388066307,
            "estimated_diameter_max": 93.330808926
        }
    },
    "is_potentially_hazardous_asteroid": false,
    "close_approach_data": [
        {
            "close_approach_date": "2017-01-15",
            "close_approach_date_full": "2017-Jan-15 02:35",
            "epoch_date_close_approach": 1484447700000,
            "relative_velocity": {
                "kilometers_per_second": "9.9298082721",
                "kilometers_per_hour": "35747.3097794926",
                "miles_per_hour": "22211.9881238186"
            },
            "miss_distance": {
                "astronomical": "0.0258132118",
                "lunar": "10.0413393902",
                "kilometers": "3861601.503138866",
                "miles": "2399487.9083177108"
            },
            "orbiting_body": "Earth"
        }
    ],
    "orbital_data": {
        "orbit_id": "2",
        "orbit_determination_date": "2017-04-06 08:20:30",
        "first_observation_date": "2017-01-28",
        "last_observation_date": "2017-02-01",
        "data_arc_in_days": 4,
        "observations_used": 8,
        "orbit_uncertainty": "9",
        "minimum_orbit_intersection": ".0186295",
        "jupiter_tisserand_invariant": "3.309",
        "epoch_osculation": "2457782.5",
        "eccentricity": ".5898951126109079",
        "semi_major_axis": "2.332557652899467",
        "inclination": "4.572690671021121",
        "ascending_node_longitude": "123.2644728438849",
        "orbital_period": "1301.208846123593",
        "perihelion_distance": ".9565932935709009",
        "perihelion_argument": "322.4465256499597",
        "aphelion_distance": "3.708522012228033",
        "perihelion_time": "2457746.609186160424",
        "mean_anomaly": "9.929761099257171",
        "mean_motion": ".2766658104672969",
        "equinox": "J2000",
        "orbit_class": {
            "orbit_class_type": "APO",
            "orbit_class_description": "Near-Earth asteroid orbits which cross the Earth’s orbit similar to that of 1862 Apollo",
            "orbit_class_range": "a (semi-major axis) > 1.0 AU; q (perihelion) < 1.017 AU"
        }
    },
    "is_sentry_object": false
}